OBJECT_NAME,OBJECT_ID,EPOCH,MEAN_MOTION,ECCENTRICITY,INCLINATION,RA_OF_ASC_NODE,ARG_OF_PERICENTER,MEAN_ANOMALY,EPHEMERIS_TYPE,CLASSIFICATION_TYPE,NORAD_CAT_ID,ELEMENT_SET_NO,REV_AT_EPOCH,BSTAR,MEAN_MOTION_DOT,MEAN_MOTION_DDOT
IONOSFERA-M 2,2024-199B,2026-07-13T05:57:56.934432,14.22762250,.00004228,98.7137,67.0519,117.9241,242.1980,0,U,61736,999,13453,.32641893E-4,.29E-6,0
PRSC-EO1,2025-012A,2026-07-13T07:13:17.650272,15.17605709,.00066052,97.4221,266.2489,151.8568,208.3024,0,U,62725,999,8215,.18384382E-3,.3631E-4,0
BIOMASS,2025-090A,2026-07-12T22:41:28.503456,14.67536495,.0001417,98.0753,20.8830,96.2489,263.8877,0,U,63772,999,6446,.10516099E-3,.548E-5,0
GOSAT-GW (IBUKI GW),2025-141A,2026-07-13T07:17:15.190656,14.67555801,.00014337,98.0565,131.1964,85.2366,274.9003,0,U,64694,999,5567,.74092609E-4,.373E-5,0
IONOSFERA-M 3,2025-155A,2026-07-13T06:57:02.824128,14.21490665,.00022383,98.6039,155.5396,115.4209,244.7200,0,U,64876,999,5011,.25038035E-4,.12E-6,0
IONOSFERA-M 4,2025-155B,2026-07-13T07:47:09.261600,14.21493056,.00017915,98.6038,155.4907,101.6965,258.4413,0,U,64877,999,5011,.22435911E-4,.6E-7,0
MICROCARB,2025-156A,2026-07-12T18:21:46.940832,14.72883584,.00174294,98.0075,270.5014,178.3822,181.7446,0,U,64899,999,5173,.51099856E-4,.278E-5,0
CO3D 3,2025-156B,2026-07-13T06:04:57.087264,15.20182728,.0001792,97.4338,272.5717,94.3219,265.8221,0,U,64900,999,5349,.11158688E-3,.2347E-4,0
CO3D 4,2025-156C,2026-07-13T06:05:12.232320,15.20201549,.00015261,97.4334,272.5720,157.6405,202.4896,0,U,64901,999,5349,.36910406E-4,.732E-5,0
CO3D 2,2025-156D,2026-07-13T06:51:57.774240,15.20192740,.00012728,97.4337,272.5026,86.8948,273.2432,0,U,64902,999,5349,.11312262E-3,.2381E-4,0
CO3D 1,2025-156E,2026-07-13T06:52:11.034912,15.20192219,.00012848,97.4336,272.5027,98.4919,261.6461,0,U,64903,999,5349,.11986302E-3,.2527E-4,0
PRSC-S1,2025-164A,2026-07-13T06:01:11.641152,15.06625701,.00063963,41.1295,140.9990,185.5399,174.5345,0,U,65055,999,5236,.16262975E-3,.2276E-4,0
SENTINEL-6B,2025-264A,2026-07-12T22:17:42.638208,12.80930082,.00078718,66.0413,81.7138,268.7841,91.2272,0,U,66514,999,3046,.10664884E-4,-.59E-6,0
CAS500-3,2025-274F,2026-07-13T07:12:34.937568,14.88381167,.00063479,97.7437,121.7576,43.2473,316.9241,0,U,66655,999,3403,.7428032E-4,.634E-5,0
CSG-3,2026-001A,2026-07-12T22:05:36.519648,14.82151156,.00015151,97.8893,17.1503,93.4463,266.6923,0,U,67304,999,2827,.24640617E-4,.144E-5,0
PRSC-E03,2026-092A,2026-07-13T07:11:20.440032,15.06803946,.00047734,38.0017,295.6870,239.5225,120.5066,0,U,68835,999,1189,.9843617E-4,.1384E-4,0
CAS500-2,2026-100AK,2026-07-13T03:25:49.892448,15.20887700,.00079023,97.3875,91.5067,300.8492,59.1966,0,U,69013,999,1075,.16698882E-3,.3624E-4,0
