IONOSFERA-M 2           
1 61736U 24199B   26194.24857563  .00000029  00000+0  32642-4 0  9991
2 61736  98.7137  67.0519 0000422 117.9241 242.1980 14.22762250134534
PRSC-EO1                
1 62725U 25012A   26194.30089873  .00003631  00000+0  18384-3 0  9991
2 62725  97.4221 266.2489 0006605 151.8568 208.3024 15.17605709 82153
BIOMASS                 
1 63772U 25090A   26193.94546879  .00000548  00000+0  10516-3 0  9996
2 63772  98.0753  20.8830 0001417  96.2489 263.8877 14.67536495 64462
GOSAT-GW (IBUKI GW)     
1 64694U 25141A   26194.30364804  .00000373  00000+0  74093-4 0  9991
2 64694  98.0565 131.1964 0001433  85.2366 274.9003 14.67555801 55670
IONOSFERA-M 3           
1 64876U 25155A   26194.28961602  .00000012  00000+0  25038-4 0  9999
2 64876  98.6039 155.5396 0002238 115.4209 244.7200 14.21490665 50113
IONOSFERA-M 4           
1 64877U 25155B   26194.32441275  .00000006  00000+0  22436-4 0  9996
2 64877  98.6038 155.4907 0001791 101.6965 258.4413 14.21493056 50114
MICROCARB               
1 64899U 25156A   26193.76512663  .00000278  00000+0  51100-4 0  9999
2 64899  98.0075 270.5014 0017429 178.3822 181.7446 14.72883584 51737
CO3D 3                  
1 64900U 25156B   26194.25343851  .00002347  00000+0  11159-3 0  9996
2 64900  97.4338 272.5717 0001792  94.3219 265.8221 15.20182728 53496
CO3D 4                  
1 64901U 25156C   26194.25361380  .00000732  00000+0  36910-4 0  9993
2 64901  97.4334 272.5720 0001526 157.6405 202.4896 15.20201549 53490
CO3D 2                  
1 64902U 25156D   26194.28608535  .00002381  00000+0  11312-3 0  9993
2 64902  97.4337 272.5026 0001272  86.8948 273.2432 15.20192740 53490
CO3D 1                  
1 64903U 25156E   26194.28623883  .00002527  00000+0  11986-3 0  9996
2 64903  97.4336 272.5027 0001284  98.4919 261.6461 15.20192219 53495
PRSC-S1                 
1 65055U 25164A   26194.25082918  .00002276  00000+0  16263-3 0  9993
2 65055  41.1295 140.9990 0006396 185.5399 174.5345 15.06625701 52369
SENTINEL-6B             
1 66514U 25264A   26193.92896572 -.00000059  00000+0  10665-4 0  9996
2 66514  66.0413  81.7138 0007871 268.7841  91.2272 12.80930082 30460
CAS500-3                
1 66655U 25274F   26194.30040437  .00000634  00000+0  74280-4 0  9998
2 66655  97.7437 121.7576 0006347  43.2473 316.9241 14.88381167 34032
CSG-3                   
1 67304U 26001A   26193.92056157  .00000144  00000+0  24641-4 0  9994
2 67304  97.8893  17.1503 0001515  93.4463 266.6923 14.82151156 28271
PRSC-E03                
1 68835U 26092A   26194.29954213  .00001384  00000+0  98436-4 0  9995
2 68835  38.0017 295.6870 0004773 239.5225 120.5066 15.06803946 11898
CAS500-2                
1 69013U 26100AK  26194.14293857  .00003624  00000+0  16699-3 0  9997
2 69013  97.3875  91.5067 0007902 300.8492  59.1966 15.20887700 10759
